#dP2024  8  3  0  0  0.00000000      97 __u+U IGS20 FIT  IAC
## 2325 518400.00000000   900.00000000 60525 0.0000000000000
+  118   C06C07C08C10C11C12C13C14C16C19C20C21C22C23C24C25C26
+        C27C28C29C30C32C33C34C35C36C37C38C39C40C41C42C43C44
+        C45E02E03E04E05E06E07E08E09E10E11E12E13E14E15E18E19
+        E21E24E25E26E27E29E30E31E33E34E36G02G03G04G05G06G07
+        G08G09G10G11G12G13G14G15G16G17G18G19G20G21G22G23G24
+        G25G26G27G28G29G30G31G32J02J03J04R01R02R03R04R05R07
+        R08R09R11R12R14R15R16R17R18R19R20R21R22R24R25R26  0
++         7  7  7  7  7  7  7  6  7  6  5  6  6  5  6  5  7
++         6  6  5  5  5  5  5  6  6  5  6  6  6  6  5  5  6
++         6  4  4  4  4  4  4  4  4  4  4  4  4  4  4  4  4
++         4  4  4  4  4  4  4  4  4  4  4  3  3  4  4  3  3
++         3  3  3  3  3  4  3  4  3  3  3  3  4  3  3  3  4
++         3  3  3  3  3  3  3  3 11 11 11  8  7  6  6  6  6
++         7  6  6  7  7  6  6  6  6  7  8  6  6  6  7  8  0
%c M  cc GPS ccc cccc cccc cccc cccc ccccc ccccc ccccc ccccc
%c cc cc ccc ccc cccc cccc cccc cccc ccccc ccccc ccccc ccccc
%f  1.2500000  1.025000000  0.00000000000  0.000000000000000
%f  0.0000000  0.000000000  0.00000000000  0.000000000000000
%i    0    0    0    0      0      0      0      0         0
%i    0    0    0    0      0      0      0      0         0
/* INFORMATION & ANALYSIS CENTER (IAC)            FINAL DATA
/* S/V CLOCKS ARE ALIGNED TO GNSS TIME                      
/* G:C1WC2W R:C1PC2P E:C1XC5X C:C2IC6I J:C1CC2S             
/* PCV:IGS20_2317 OL/AL:FES2004  NONE     YN ORB:CoN CLK:CoN
*  2024 08 03  0  0  0.00000000
PC06  -3232.395013  26714.357480 -32307.564659    647.328112
PC07 -17002.115249  32229.501671  21118.249225   -494.901573
PC08  -6909.688580  41209.222462   6467.120505   -382.375740
PC10  -9485.186673  32190.100637  25558.038912   -107.206736
PC11 -11683.815073 -16543.002009 -19123.073132    693.470944
PC12   9870.522491 -12996.180189 -22601.603602   -265.538495
PC13  -2733.869091  42223.039083   1008.883615    438.282810
PC14  -1091.153005 -18927.476358  20501.085104    915.682822
PC16  -4265.718274  25478.708741 -32923.477635   -701.445939
PC19   9761.320568  12233.097221 -23088.818413   -922.610334
PC20  -6208.414307  22000.651290 -15981.127201   -757.364067
PC21  20082.945809 -19330.822569  -1640.036347   -948.206929
PC22  21200.975958  -5158.201429 -17427.795103     80.330556
PC23 -17534.754480  -6353.485921 -20745.355737   -808.178505
PC24   -995.850652 -26379.298075   9007.079063    866.070313
PC25 -13605.674664 -22920.863434  -8235.154863    468.236098
PC26  11356.997422 -14333.620327  21055.267705   -328.769404
PC27 -18729.391099   8847.737619  18679.584999    349.477553
PC28 -27133.699712  -2377.141910   6058.290672    269.677093
PC29  20151.019799  13859.920892  13438.704093    316.634449
PC30    -96.052634  16295.335342  22643.338444   -152.432216
PC32 -19964.230742  19402.528007   1779.447250   -690.960151
PC33  -9733.150484 -12319.479120  23065.338469   -964.273334
PC34  -1880.918699 -16585.327656 -22379.067757    490.745363
PC35  27274.572855   1645.637747  -5608.816372    297.150324
PC36  13253.221421  23045.764313   8532.346674    151.528464
PC37 -11642.055676  14147.302798 -21039.803268   -913.832892
PC38 -11749.702130  37424.333956  15708.192990    170.971193
PC39 -10766.616897  21592.712579 -34496.961542     -9.397400
PC40 -24435.355951  26595.494689  21508.476669    -83.547716
PC41 -20881.459117   4300.809306  18040.133727   -931.883797
PC42   7739.163638 -22496.181890  14650.315682   -458.916029
PC43 -19346.040303 -14312.576673 -14152.218906     81.004143
PC44  18503.445685  -9638.743891 -18538.458742    551.734093
PC45  17431.252345   6955.810962  20663.846956   -112.111281
PE02   7341.057990 -28509.825999  -3024.845982    148.277914
PE03   7773.703365 -17640.501425  22461.508330   -131.102419
PE04  14939.844352  12644.649780 -22203.416797      1.196479
PE05  25290.727479 -12115.008218   9489.760982   4771.630633
PE06  23412.473739   7143.258994 -16657.496739    -11.398825
PE07 -28038.617603   -778.132269   9433.903515   -134.492986
PE08 -13983.878768 -12957.221678  22636.635889   -312.934878
PE09  28019.940382    779.746963  -9542.251318   -538.470502
PE10  22154.657745  18593.563625  -6335.600006   -645.422998
PE11  22862.936550  10416.370833 -15661.850155   2171.608692
PE12  18202.503808  23160.874150   2845.602450  -1150.473322
PE13 -22900.899495 -10949.684030  15224.241621    -23.501383
PE14 -19842.346426  -8506.627571 -14548.992059    146.163451
PE15 -17877.865200 -23334.485637  -3470.032944   -118.571905
PE18  30896.098657  -2172.779847   4300.765672    388.722835
PE19 -10026.992710  17366.950171 -21765.687655    393.065515
PE21 -17010.519919  19397.993728 -14501.111047   -608.919103
PE24  17086.311236   1774.788036  24095.170116   -908.930111
PE25  17142.461200 -19029.275548  14849.633251      7.578408
PE26 -14186.792302   8219.911524  24643.217241    530.488905
PE27 -17104.049975  -1468.340349 -24106.531983   -416.411148
PE29 -25049.338081  12329.785011  -9847.747300    -20.072289
PE30  -7075.756483 -21263.245321 -19339.123950   -571.661711
PE31   7124.725970  21205.806260  19394.317370    -31.315037
PE33   2017.452785  21627.000581  20113.407273     14.298215
PE34  -2462.462674 -21824.722733 -19844.683376   -126.235333
PE36  14469.003576  -7591.305559 -24683.471919   -263.721421
PG02 -22487.510511 -13031.381277   6699.283301   -386.709584
PG03 -13902.232829  -4505.653156  22014.346485    484.498050
PG04 -24287.844406  -2087.807750  10728.006297    416.481746
PG05   6985.573953  19898.413352 -16283.455285   -181.893024
PG06  -2388.808638  16849.107629  20424.229093    122.936893
PG07 -18152.715177    989.276144 -18991.958179    -58.227273
PG08 -16830.540638  -8886.312387 -18807.572467    300.355936
PG09 -25515.927988   7481.583073    -67.834726    298.414098
PG10  10422.352044 -23478.549777  -5819.311642    -82.982891
PG11  10061.478916  22165.212729  10730.502047   -715.487164
PG12  12863.308165   8432.583239  21378.645805   -527.313288
PG13   7952.417200  13825.732947 -21495.121241    668.482973
PG14 -13192.217022  20960.435561  -9244.767022    463.477132
PG15  17773.763950   7385.590633 -18888.381900    188.195853
PG16  -2282.928348 -22371.679825 -14104.618173   -219.248778
PG17 -18314.431436  13608.287725  14154.233816    663.952741
PG18  17300.581288  -1689.395780 -20127.452907   -642.737433
PG19  -9897.337610  14973.278995  19271.783962    519.250325
PG20   2411.980174  25692.132004  -6546.740425    372.090514
PG21 -21375.554501 -16692.525454   1292.337225    105.193274
PG22  -9714.016988  24869.447324   -657.910876    -46.915688
PG23  14861.894333 -14430.774679 -16472.575435    288.411835
PG24  21948.058381  14860.696040   3407.152499   -485.308034
PG25  16070.930213  -4233.600643  20326.955992    499.037483
PG26   3909.535772 -26043.603204  -1197.985531    108.133987
PG27  -5403.423048 -14406.921678 -21953.644153    -32.416232
PG28   4347.910021 -15885.732653  20826.794633   -357.087430
PG29  26301.451420  -2685.638468   3136.056186   -586.248537
PG30 -10463.908331  11710.663356 -21259.751958   -346.855917
PG31  -6055.312564 -21151.311586  14376.531111   -226.236116
PG32  15951.968453 -15166.788734  14933.286266   -608.465196
PJ02 -26566.080548  31018.634497  -5707.752723     -0.687729
PJ03 -26496.523897  22305.605139  29152.900435     -1.546865
PJ04 -31491.429550  27598.567310    472.394148     50.894413
PR01  -2523.981376  14436.072227 -20878.276305     93.310550
PR02  12374.672521   3716.110616 -21939.749884    -23.949723
PR03  21223.649560  -9300.481925 -10554.387324    104.922193
PR04  18359.634543 -16570.814210   6241.138568    248.119364
PR05   5664.359034 -15138.726331  19732.047796    135.489940
PR07 -21397.848251   9685.324560  10048.263476     87.997271
PR08 -18143.794523  16780.751911  -6331.157126     -6.251120
PR09 -10478.688914 -16641.254092 -16272.165974    201.212979
PR11  -6436.294681  17220.237676 -17657.994459     16.170107
PR12   2825.151113  25356.706999     20.164910     43.181410
PR14  11106.899659  -1176.088986  22951.232714     26.755787
PR15   5961.442443 -18535.601674  16510.711714     77.249138
PR16  -2795.455826 -25374.495902    264.352825     27.932281
PR17  22032.914939   3773.906891 -12329.061622    110.141673
PR18  10684.495609  -6144.962764 -22313.018972    155.111165
PR19  -3846.930069 -12815.651433 -21716.406217   -286.164074
PR20 -20787.572664 -13551.516067  -5970.546889   -117.087419
PR21 -22117.994017  -4282.904450  11924.784749   -122.768934
PR22  -9954.292975   6928.506451  22465.264634     77.082106
PR24  21556.737864  12548.668636   5419.211906    -66.245483
PR25 -21778.529129  -4225.785243  12568.926655    -99.230865
PR26 -18699.407496  16596.266205  -4981.240853      7.612531
EOF
